P/2023 V6 (PANSTARRS),e,3.9749,189.9607,193.5400,5.323723,0.0802381,0.17717244,44.3239,06/18.0/2024,2000,g 11.5,4.0
# From MPEC 2024-GJ3
C/2023 X1 (Leonard),e,110.5872,137.0118,321.4691,159.6925,0.0004884,0.99404784,0.0000,10/18.0778/2023,2000,g 13.5,3.2
# From MPEC 2024-DC6
C/2023 X2 (Lemmon),h,12/26.2480/2025,76.9971,66.3130,64.5078,1.001760,5.097594,2000,8.5,3.2
# From MPEC 2024-A43
P/2023 X3 (PANSTARRS),e,4.4834,62.0132,40.8168,4.246283,0.1126395,0.28640396,6.4266,06/18.0/2024,2000,g 15.5,4.0
# From MPEC 2024-JU4
C/2023 X4 (Hogan),e,11.5948,28.7656,100.5437,9.910886,0.0315890,0.63090916,0.7653,06/18.0/2024,2000,g 12.0,4.0
# From MPEC 2024-DA2
C/2023 X7 (PANSTARRS),h,05/14.8816/2025,69.0548,119.2085,354.3466,1.002318,4.821050,2000,9.0,4.0
# From MPEC 2024-JU4
P/2023 Y1 (Gibbs),e,6.3841,78.8565,51.4413,3.748516,0.1358048,0.44515915,27.3271,06/18.0/2024,2000,g 17.0,4.0
# From MPEC 2024-F34
P/2023 Y2 (Gibbs),e,6.9928,79.2291,16.8310,3.745150,0.1359879,0.39223313,42.5748,06/18.0/2024,2000,g 15.5,4.0
# From MPEC 2024-JU4
C/2024 A1 (ATLAS),h,06/13.6822/2025,94.4470,112.1406,353.2995,1.001346,3.875712,2000,7.0,4.0
# From MPEC 2024-JU4
C/2024 A2 (ATLAS),e,119.1113,78.1673,295.5807,32.32618,0.0053626,0.94179243,0.2686,06/18.0/2024,2000,g 12.5,4.0
# From MPEC 2024-D33
C/2024 B1 (Lemmon),h,10/07.6992/2024,70.9032,79.1872,66.2078,1.000967,1.633653,2000,13.0,4.0
# From MPEC 2024-GJ3
C/2024 B2 (Lemmon),e,99.8386,294.3785,130.3232,5084,0.0000027,0.99919813,0.0000,10/06.0509/2023,2000,g 11.5,4.0
# From MPEC 2024-JU4
C/2024 C1 (PANSTARRS),e,14.2268,83.8112,94.4654,10.56001,0.0287215,0.58210760,357.8781,06/18.0/2024,2000,g 11.5,4.0
# From MPEC 2024-JU4
C/2024 C2 (PANSTARRS),e,27.2844,66.4421,87.5334,16.18735,0.0151335,0.44453853,355.9853,06/18.0/2024,2000,g  6.0,4.0
# From MPEC 2024-GJ3
C/2024 C3 (PANSTARRS),e,22.4643,359.7089,159.6462,11.64686,0.0247965,0.42365655,5.5294,06/18.0/2024,2000,g  9.0,4.0
# From MPEC 2024-LE0
C/2024 C4 (ATLAS),e,79.2871,220.6848,321.5215,83.98436,0.0012806,0.98248215,0.0000,01/30.1971/2024,2000,g 14.5,4.0
# From MPEC 2024-EG1
A/2024 D1,e,132.4531,179.6732,125.7308,1808,0.0000128,0.99629244,0.0000,12/04.9386/2027,2000,g 11.0,2.0
# From MPEC 2024-LE0
C/2024 E1 (Wierzchos),h,01/20.7621/2026,75.2339,108.1115,243.6583,1.000002,0.565194,2000,7.0,4.0
# From MPEC 2024-JU4
C/2024 E2 (Bok),e,155.6493,135.6517,358.0491,51.78244,0.0026450,0.85145175,0.6296,06/18.0/2024,2000,g  8.0,4.0
# From MPEC 2024-JU4
P/2024 F1 (PANSTARRS),e,7.0054,251.5423,229.5413,3.442639,0.1543003,0.45983451,36.4696,06/18.0/2024,2000,g 16.0,4.0
# From MPEC 2024-LE0
C/2024 F2 (PANSTARRS),e,13.7406,138.9504,112.9136,9.950270,0.0314016,0.60118658,358.7067,06/18.0/2024,2000,g 11.0,4.0
# From MPEC 2024-LE0
P/2024 FG9 (Nanshan-Hahn),e,1.7390,253.9769,245.2990,2.652770,0.2281155,0.41045645,6.6644,06/18.0/2024,2000,g 14.0,4.0
# From MPEC 2024-LE0
C/2024 G1 (Wierzchos),e,95.4023,30.5906,128.2196,124.2269,0.0007118,0.96835964,359.9110,06/18.0/2024,2000,g 10.0,4.0
# From MPEC 2024-JU4
C/2024 G2 (ATLAS),e,122.1331,171.3909,328.7913,894.6684,0.0000368,0.99402507,0.0000,06/13.8016/2025,2000,g  7.0,4.0
# From MPEC 2024-LE0
C/2024 G3 (ATLAS),h,01/13.4292/2025,116.8537,220.3279,108.1242,1.000010,0.093490,2000,9.0,4.0
# From MPEC 2024-LE0
C/2024 G4 (PANSTARRS),e,33.0284,153.0026,131.4317,3085,0.0000058,0.99841175,0.0000,03/21.7886/2026,2000,g  8.0,4.0
# From MPEC 2024-JC6
C/2024 G5 (Leonard),e,50.3895,316.3988,209.5596,537.3052,0.0000791,0.99450429,0.0000,09/06.9904/2024,2000,g 13.0,4.0
# From MPEC 2024-JD4
C/2024 G6 (ATLAS),h,02/20.7126/2026,120.4535,250.9543,23.3837,1.000465,6.434849,2000,5.5,4.0
# From MPEC 2024-K41
C/2024 G7 (ATLAS),e,131.5167,191.9259,289.4806,16194,0.0000005,0.99962747,0.0000,02/08.8209/2025,2000,g  7.0,4.0
# From MPEC 2024-JU4
P/2024 J1 (PANSTARRS),e,13.1580,321.9545,200.3351,3.807633,0.1326543,0.30746008,29.1622,06/18.0/2024,2000,g 14.5,4.0
# From MPEC 2024-LE0
C/2024 J2 (Wierzchos),e,79.2972,189.0626,143.1528,149.8908,0.0005371,0.98791940,0.0000,03/19.7395/2025,2000,g 11.5,4.0
# From MPEC 2024-LE0
C/2024 J3 (ATLAS),e,75.5300,285.9961,74.1442,553.2733,0.0000757,0.99299496,0.0000,11/29.1358/2026,2000,g  5.0,4.0
# From MPEC 2024-LE0
C/2024 J4 (Lemmon),e,117.5361,19.3014,127.8843,1642,0.0000148,0.99653212,0.0000,04/26.3969/2025,2000,g  8.0,4.0
# From MPEC 2024-LE0
C/2024 L1 (PANSTARRS),e,99.1712,45.1400,171.8328,11.44895,0.0254422,0.53289723,352.1237,06/18.0/2024,2000,g 10.0,4.0
# From MPEC 2024-M24
C/2024 L2 (PANSTARRS),e,139.3487,266.4331,344.7724,176.8196,0.0004192,0.95282756,359.8552,06/18.0/2024,2000,g  7.5,3.2
# From  98, 1083
1P/Halley,e,162.2070,59.6957,112.6090,17.86742,0.0130500,0.96694890,182.5064,06/18.0/2024,2000,g  4.0,6.0
# From MPEC 2024-L77
2P/Encke,e,11.3382,334.0159,187.2852,2.218447,0.2982843,0.84695923,71.4304,06/18.0/2024,2000,g 11.5,6.0
# From  76, 1135
3D/Biela,e,7.8876,276.1865,192.2851,3.539414,0.1480155,0.76746740,304.7572,06/18.0/2024,2000,g 11.0,6.0
# From  76, 1135
3D-A/Biela,e,7.2154,276.6878,192.1216,3.549832,0.1473643,0.76710418,335.3716,06/18.0/2024,2000,g 11.0,6.0
# From  76, 1135
3D-B/Biela,e,7.8797,276.2012,192.2461,3.540165,0.1479683,0.76776528,304.4972,06/18.0/2024,2000,g 11.0,6.0
# From MPEC 2023-FK0
4P/Faye,e,8.0074,192.9226,207.1047,3.828750,0.1315584,0.57670561,133.2531,06/18.0/2024,2000,g  8.0,6.0
# From  27, 116
5D/Brorsen,e,18.6264,94.9054,20.3025,3.158225,0.1756060,0.83772547,75.1340,06/18.0/2024,2000,g 10.5,6.0
# From MPEC 2022-WD2
6P/d'Arrest,e,19.5020,138.9497,178.0821,3.497486,0.1506851,0.61200827,151.4185,06/18.0/2024,2000,g  7.5,16.0
# From MPEC 2023-A50
7P/Pons-Winnecke,e,22.4303,93.2808,172.4705,3.405539,0.1568286,0.63969544,175.3643,06/18.0/2024,2000,g 10.0,6.0
# From MPEC 2022-HC2
8P/Tuttle,e,54.9693,270.1746,207.4723,5.704019,0.0723490,0.82050187,74.1528,06/18.0/2024,2000,g  8.0,8.0
# From MPEC 2024-AF0
9P/Tempel,e,10.9569,67.3920,183.2161,3.216894,0.1708240,0.50166301,141.7365,06/18.0/2024,2000,g  5.5,10.0
# From MPEC 2024-GJ3
10P/Tempel,e,12.0292,117.8079,195.5212,3.062815,0.1838751,0.53754401,217.4649,06/18.0/2024,2000,g  5.0,10.0
# From MPEC 2023-A50
11P/Tempel-Swift-LINEAR,e,14.4349,238.8651,168.0303,3.283620,0.1656436,0.57757975,215.1206,06/18.0/2024,2000,g 17.0,4.0
# From MPEC 2024-L77
12P/Pons-Brooks,e,74.1916,255.8558,198.9890,17.19997,0.0138170,0.95460532,0.7997,06/18.0/2024,2000,g  5.0,6.0
# From MPEC 2024-LE0
13P/Olbers,e,44.6657,85.8476,64.4188,16.85179,0.0142474,0.93024706,359.8283,06/18.0/2024,2000,g  5.0,6.0
# From MPEC 2024-LE0
14P/Wolf,e,27.9240,202.0372,159.1728,4.257145,0.1122087,0.35692189,267.6780,06/18.0/2024,2000,g  5.5,12.0
# From MPEC 2022-ED3
15P/Finlay,e,6.7926,13.7406,347.8755,3.509970,0.1498818,0.71656482,160.4662,06/18.0/2024,2000,g 12.0,4.0
# From MPEC 2022-X67
16P/Brooks,e,3.0104,138.8491,245.3374,3.660928,0.1407075,0.48609792,162.7227,06/18.0/2024,2000,g  7.5,10.0
# From MPEC 2023-J29
17P/Holmes,e,19.0146,326.6234,24.6200,3.640115,0.1419160,0.42683069,172.3549,06/18.0/2024,2000,g 10.0,6.0
# From  19, 80
18D/Perrine-Mrkos,e,17.657,158.470,238.233,3.88206,0.128858,0.5895162,350.694,06/18.0/2024,2000,g  9.0,4.0
# From MPEC 2024-JU4
19P/Borrelly,e,29.3162,74.2154,351.9822,3.607768,0.1438289,0.63790797,124.6851,06/18.0/2024,2000,g  4.5,10.0
# From MPEC 2024-LE0
21P/Giacobini-Zinner,e,32.0519,195.3380,172.9206,3.492955,0.1509783,0.71113641,317.6742,06/18.0/2024,2000,g  9.0,6.0
# From MPEC 2024-L77
22P/Kopff,e,4.7577,120.5274,162.9085,3.429524,0.1551863,0.55164384,127.5912,06/18.0/2024,2000,g  3.0,10.4
# From MPC 14747
23P/Brorsen-Metcalf,e,19.3803,311.4890,129.6794,16.93987,0.0141364,0.97253524,0.0000,08/27.1735/1989,2000,g 10.0,6.0
# From MPC110085
24P/Schaumasse,e,11.5060,78.3755,58.3919,4.055911,0.1206623,0.70800159,291.2947,06/18.0/2024,2000,g  6.5,14.0
# From NK 378
25D/Neujmin 2,e,2.8062,280.0223,244.7696,3.223347,0.1703113,0.55105124,304.2563,06/18.0/2024,2000,g 12.5,6.0
# From MPEC 2024-LE0
26P/Grigg-Skjellerup,e,22.4329,211.5394,2.1405,3.015632,0.1882073,0.64059001,33.0612,06/18.0/2024,2000,g 12.0,16.0
# From MPC 78188
27P/Crommelin,e,29.4367,250.7064,195.8319,9.179304,0.0354397,0.91952544,166.8288,06/18.0/2024,2000,g 12.0,8.0
# From MPEC 2024-GJ3
28P/Neujmin,e,14.3021,346.3806,347.4766,6.983047,0.0534117,0.77310756,63.8160,06/18.0/2024,2000,g  8.5,6.0
# From MPEC 2024-LE0
29P/Schwassmann-Wachmann,e,9.3583,312.4061,52.0594,6.053819,0.0661698,0.04395553,123.8821,06/18.0/2024,2000,g  4.0,4.0
# From MPEC 2024-GJ3
30P/Reinmuth,e,8.0531,117.2362,9.4829,3.734923,0.1365468,0.51440827,351.7834,06/18.0/2024,2000,g  9.5,6.0
# From MPEC 2023-RF3
31P/Schwassmann-Wachmann,e,4.5495,114.1112,17.8258,4.232987,0.1131706,0.19297169,204.9620,06/18.0/2024,2000,g  5.0,8.0
# From MPEC 2024-L77
32P/ComasSola,e,9.9207,54.5298,54.6705,4.551938,0.1014868,0.55522199,5.9261,06/18.0/2024,2000,g  6.5,8.0
# From MPEC 2023-J29
33P/Daniel,e,22.2956,66.2834,20.3414,4.094854,0.1189451,0.45239579,342.6155,06/18.0/2024,2000,g 10.0,12.0
# From  9, 314
34D/Gale,e,10.5827,57.8676,218.0468,5.014034,0.0877856,0.75787882,289.9072,06/18.0/2024,2000,g  9.0,4.0
# From  15, 452
35P/Herschel-Rigollet,e,64.993,356.483,29.087,28.5389,0.006465,0.9744215,0.000,03/24.4064/2092,2000,g  9.0,4.0
# From MPEC 2023-RF3
36P/Whipple,e,9.9498,181.8397,201.1692,4.139627,0.1170206,0.26865594,172.8003,06/18.0/2024,2000,g  8.5,6.0
# From MPEC 2024-LE0
37P/Forbes,e,8.9473,314.5514,330.0686,3.462970,0.1529435,0.53283109,342.3724,06/18.0/2024,2000,g 10.5,4.8
# From MPEC 2018-S50
38P/Stephan-Oterma,e,18.3992,77.8782,359.5343,11.25226,0.0261123,0.85980414,53.3680,06/18.0/2024,2000,g  3.5,12.0
# From MPEC 2024-AF0
39P/Oterma,e,1.6147,291.6048,109.6637,7.074367,0.0523809,0.19173075,16.5416,06/18.0/2024,2000,g  7.0,6.0
# From MPC100283
40P/Vaisala,e,11.5718,129.8404,51.0930,4.971486,0.0889150,0.63413906,314.5831,06/18.0/2024,2000,g  5.5,12.0
# From MPEC 2023-SQ0
41P/Tuttle-Giacobini-Kresak,e,9.2166,140.9742,62.2375,3.088296,0.1816041,0.65956426,116.8563,06/18.0/2024,2000,g 10.0,16.0
# From MPC 94283
